COSMO-SKYMED 1          
1 31598U 07023A   26170.80848988  .00002255  00000+0  20060-3 0  9991
2 31598  97.8850   2.6860 0001499  98.2997 261.8394 14.97110711 30181
COMS 1                  
1 36744U 10032A   26170.82989125  .00000085  00000+0  00000+0 0  9991
2 36744   4.8128  75.3251 0011627  12.2751 182.1056  0.99163136 51116
CBERS 4                 
1 40336U 14079A   26170.82528948 -.00000018  00000+0  85748-5 0  9995
2 40336  98.3525 227.5743 0001744  62.2891 297.8472 14.35509300604339
CAS500-1                
1 47932U 21022A   26170.82770150  .00004737  00000+0  22207-3 0  9994
2 47932  97.3894  66.0276 0003293 286.9396  73.1478 15.20157452291165
CO3D 3                  
1 64900U 25156B   26170.82054171  .00003491  00000+0  16427-3 0  9991
2 64900  97.4327 249.4760 0001610 129.1370 231.0008 15.20212301 49932
CO3D 4                  
1 64901U 25156C   26170.82069267  .00000216  00000+0  13113-4 0  9996
2 64901  97.4333 249.4761 0000135 299.7743  60.3479 15.20192722 49939
CO3D 2                  
1 64902U 25156D   26170.78734787  .00003292  00000+0  15508-3 0  9994
2 64902  97.4328 249.3421 0001525 107.0982 253.0421 15.20213645 49921
CO3D 1                  
1 64903U 25156E   26170.78750135  .00004140  00000+0  19419-3 0  9998
2 64903  97.4325 249.3425 0001329 113.2440 246.8935 15.20213537 49923
CAS500-3                
1 66655U 25274F   26170.70279306  .00000929  00000+0  10618-3 0  9996
2 66655  97.7445  98.6966 0006836 103.7774 256.4204 14.88325944 30523
CAS500-2                
1 69013U 26100AK  26170.78440174  .00005321  00000+0  24544-3 0  9991
2 69013  97.4070  68.5943 0010442  26.6140 333.5629 15.20615764  7200
